AII-BRAVO               
1 48270U 21034C   26068.69561509  .00006142  00000+0  46527-3 0  9993
2 48270  97.5758 125.8704 0005372 233.3237 126.7495 15.02621336264679
STARLINK-5711           
1 55471U 23015Y   26067.13871294 -.00002481  00000+0 -16881-3 0  9992
2 55471  43.0038 334.1590 0001582 247.6794 112.3881 15.02506612170529
